{
  "type": "FeatureCollection",
  "crs": {
    "type": "name",
    "properties": {
      "name": "urn:ogc:def:crs:OGC:1.3:CRS84"
    }
  },
  "metadata": {
    "simulation_model": "OpenDrift / PyLagrangian Hydrodynamic Particle Tracker",
    "trajectory_direction": "Backward-in-Time Advection-Diffusion Reverse Monte Carlo",
    "particles_seeded": 10000,
    "simulation_window_hours": 22.0,
    "t0_observation_utc": "2024-11-14T04:22:18Z",
    "estimated_discharge_time_utc": "2024-11-13T06:22:18Z",
    "ocean_forcing_dataset": "Copernicus Marine Environment Monitoring Service (CMEMS GLORYS12V1)",
    "ocean_current_resolution": "1/12 degree (approx 9km) with INCOIS ROMS High-Res Coastal Nesting",
    "atmospheric_wind_forcing": "ECMWF ERA5 Atmospheric Reanalysis 10m Vector Wind (U10, V10)",
    "stokes_drift_parametrization": "WaveWatch III (WW3) Ocean Wave Spectrum Surface Stokes Drift",
    "discharge_origin_centroid": [
      69.36,
      22.615
    ],
    "digital_custody_hash_sha256": "e4f8b9a1c2d3e4f5a6b7c8d9e0f1a2b3c4d5e6f7a8b9c0d1e2f3a4b5c6d7e8f9"
  },
  "features": [
    {
      "type": "Feature",
      "id": "ENVELOPE-P50-CORE",
      "properties": {
        "isobar_level": "50% Core Probability Isobar",
        "confidence_description": "50% of 10,000 Lagrangian particles converge in this focal bounding zone",
        "time_of_discharge_window": "2024-11-13T05:30:00Z to 2024-11-13T07:45:00Z",
        "area_km2": 8.42,
        "mean_current_speed_knots": 0.42,
        "current_direction_deg": 78.5,
        "mean_wind_speed_ms": 4.1,
        "wind_direction_deg": 255.0
      },
      "geometry": {
        "type": "Polygon",
        "coordinates": [
          [
            [
              69.394822,
              22.62433
            ],
            [
              69.392524,
              22.625505
            ],
            [
              69.393539,
              22.627768
            ],
            [
              69.390069,
              22.628304
            ],
            [
              69.39004,
              22.630323
            ],
            [
              69.387343,
              22.631023
            ],
            [
              69.386287,
              22.632707
            ],
            [
              69.382714,
              22.632672
            ],
            [
              69.38123,
              22.634261
            ],
            [
              69.377489,
              22.633803
            ],
            [
              69.375505,
              22.635269
            ],
            [
              69.371473,
              22.634016
            ],
            [
              69.368806,
              22.63492
            ],
            [
              69.365302,
              22.634075
            ],
            [
              69.362087,
              22.634384
            ],
            [
              69.358704,
              22.632827
            ],
            [
              69.355201,
              22.632908
            ],
            [
              69.352209,
              22.631087
            ],
            [
              69.348389,
              22.630897
            ],
            [
              69.346156,
              22.628588
            ],
            [
              69.342414,
              22.627849
            ],
            [
              69.340155,
              22.625953
            ],
            [
              69.336664,
              22.624706
            ],
            [
              69.335453,
              22.622539
            ],
            [
              69.331984,
              22.621065
            ],
            [
              69.331493,
              22.618947
            ],
            [
              69.328074,
              22.617213
            ],
            [
              69.328949,
              22.615201
            ],
            [
              69.326323,
              22.61325
            ],
            [
              69.326633,
              22.611415
            ],
            [
              69.324911,
              22.609343
            ],
            [
              69.326581,
              22.607835
            ],
            [
              69.325178,
              22.60567
            ],
            [
              69.327476,
              22.604495
            ],
            [
              69.326461,
              22.602232
            ],
            [
              69.329931,
              22.601696
            ],
            [
              69.32996,
              22.599677
            ],
            [
              69.332657,
              22.598977
            ],
            [
              69.333713,
              22.597293
            ],
            [
              69.337286,
              22.597328
            ],
            [
              69.33877,
              22.595739
            ],
            [
              69.342511,
              22.596197
            ],
            [
              69.344495,
              22.594731
            ],
            [
              69.348527,
              22.595984
            ],
            [
              69.351194,
              22.59508
            ],
            [
              69.354698,
              22.595925
            ],
            [
              69.357913,
              22.595616
            ],
            [
              69.361296,
              22.597173
            ],
            [
              69.364799,
              22.597092
            ],
            [
              69.367791,
              22.598913
            ],
            [
              69.371611,
              22.599103
            ],
            [
              69.373844,
              22.601412
            ],
            [
              69.377586,
              22.602151
            ],
            [
              69.379845,
              22.604047
            ],
            [
              69.383336,
              22.605294
            ],
            [
              69.384547,
              22.607461
            ],
            [
              69.388016,
              22.608935
            ],
            [
              69.388507,
              22.611053
            ],
            [
              69.391926,
              22.612787
            ],
            [
              69.391051,
              22.614799
            ],
            [
              69.393677,
              22.61675
            ],
            [
              69.393367,
              22.618585
            ],
            [
              69.395089,
              22.620657
            ],
            [
              69.393419,
              22.622165
            ],
            [
              69.394822,
              22.62433
            ]
          ]
        ]
      }
    },
    {
      "type": "Feature",
      "id": "ENVELOPE-P75-INTERMEDIATE",
      "properties": {
        "isobar_level": "75% Confidence Dispersion Isobar",
        "area_km2": 21.65,
        "horizontal_eddy_diffusivity_m2s": 10.0
      },
      "geometry": {
        "type": "Polygon",
        "coordinates": [
          [
            [
              69.429624,
              22.633656
            ],
            [
              69.421327,
              22.634517
            ],
            [
              69.427201,
              22.639922
            ],
            [
              69.418032,
              22.639782
            ],
            [
              69.420389,
              22.644493
            ],
            [
              69.410782,
              22.643287
            ],
            [
              69.412013,
              22.648078
            ],
            [
              69.404154,
              22.647217
            ],
            [
              69.403024,
              22.651359
            ],
            [
              69.393503,
              22.648306
            ],
            [
              69.391677,
              22.652962
            ],
            [
              69.382712,
              22.649134
            ],
            [
              69.378358,
              22.652056
            ],
            [
              69.370473,
              22.647606
            ],
            [
              69.364879,
              22.650099
            ],
            [
              69.35825,
              22.646511
            ],
            [
              69.351221,
              22.647764
            ],
            [
              69.346054,
              22.642584
            ],
            [
              69.337597,
              22.643764
            ],
            [
              69.334087,
              22.638491
            ],
            [
              69.325573,
              22.637913
            ],
            [
              69.324029,
              22.632826
            ],
            [
              69.314887,
              22.631559
            ],
            [
              69.313371,
              22.627346
            ],
            [
              69.304561,
              22.624976
            ],
            [
              69.306774,
              22.620704
            ],
            [
              69.29664,
              22.617717
            ],
            [
              69.300642,
              22.614087
            ],
            [
              69.292955,
              22.610347
            ],
            [
              69.298657,
              22.607603
            ],
            [
              69.291322,
              22.603319
            ],
            [
              69.295807,
              22.600949
            ],
            [
              69.290376,
              22.596344
            ],
            [
              69.298673,
              22.595483
            ],
            [
              69.292799,
              22.590078
            ],
            [
              69.301968,
              22.590218
            ],
            [
              69.299611,
              22.585507
            ],
            [
              69.309218,
              22.586713
            ],
            [
              69.307987,
              22.581922
            ],
            [
              69.315846,
              22.582783
            ],
            [
              69.316976,
              22.578641
            ],
            [
              69.326497,
              22.581694
            ],
            [
              69.328323,
              22.577038
            ],
            [
              69.337288,
              22.580866
            ],
            [
              69.341642,
              22.577944
            ],
            [
              69.349527,
              22.582394
            ],
            [
              69.355121,
              22.579901
            ],
            [
              69.36175,
              22.583489
            ],
            [
              69.368779,
              22.582236
            ],
            [
              69.373946,
              22.587416
            ],
            [
              69.382403,
              22.586236
            ],
            [
              69.385913,
              22.591509
            ],
            [
              69.394427,
              22.592087
            ],
            [
              69.395971,
              22.597174
            ],
            [
              69.405113,
              22.598441
            ],
            [
              69.406629,
              22.602654
            ],
            [
              69.415439,
              22.605024
            ],
            [
              69.413226,
              22.609296
            ],
            [
              69.42336,
              22.612283
            ],
            [
              69.419358,
              22.615913
            ],
            [
              69.427045,
              22.619653
            ],
            [
              69.421343,
              22.622397
            ],
            [
              69.428678,
              22.626681
            ],
            [
              69.424193,
              22.629051
            ],
            [
              69.429624,
              22.633656
            ]
          ]
        ]
      }
    },
    {
      "type": "Feature",
      "id": "ENVELOPE-P90-EXTENDED",
      "properties": {
        "isobar_level": "90% Maximum Forensic Bounding Isobar",
        "confidence_description": "Forensic outer envelope bounding 90% particle dispersion probability",
        "area_km2": 45.18,
        "court_admissibility_threshold": "Statutory proof beyond reasonable maritime doubt"
      },
      "geometry": {
        "type": "Polygon",
        "coordinates": [
          [
            [
              69.47055,
              22.644622
            ],
            [
              69.451692,
              22.644237
            ],
            [
              69.467613,
              22.655044
            ],
            [
              69.446768,
              22.652224
            ],
            [
              69.45585,
              22.662077
            ],
            [
              69.435845,
              22.657528
            ],
            [
              69.44254,
              22.667888
            ],
            [
              69.425979,
              22.663547
            ],
            [
              69.428197,
              22.67317
            ],
            [
              69.409991,
              22.665208
            ],
            [
              69.410602,
              22.676333
            ],
            [
              69.393849,
              22.666526
            ],
            [
              69.389005,
              22.674421
            ],
            [
              69.375522,
              22.664236
            ],
            [
              69.367591,
              22.671357
            ],
            [
              69.357239,
              22.662684
            ],
            [
              69.345894,
              22.667643
            ],
            [
              69.339006,
              22.656768
            ],
            [
              69.323949,
              22.661694
            ],
            [
              69.321103,
              22.650645
            ],
            [
              69.30517,
              22.651958
            ],
            [
              69.306107,
              22.642102
            ],
            [
              69.288195,
              22.641813
            ],
            [
              69.290116,
              22.633888
            ],
            [
              69.271855,
              22.631278
            ],
            [
              69.280319,
              22.623861
            ],
            [
              69.258414,
              22.619702
            ],
            [
              69.271142,
              22.613884
            ],
            [
              69.253453,
              22.607845
            ],
            [
              69.268261,
              22.604093
            ],
            [
              69.250862,
              22.596562
            ],
            [
              69.26393,
              22.594027
            ],
            [
              69.24945,
              22.585378
            ],
            [
              69.268308,
              22.585763
            ],
            [
              69.252387,
              22.574956
            ],
            [
              69.273232,
              22.577776
            ],
            [
              69.26415,
              22.567923
            ],
            [
              69.284155,
              22.572472
            ],
            [
              69.27746,
              22.562112
            ],
            [
              69.294021,
              22.566453
            ],
            [
              69.291803,
              22.55683
            ],
            [
              69.310009,
              22.564792
            ],
            [
              69.309398,
              22.553667
            ],
            [
              69.326151,
              22.563474
            ],
            [
              69.330995,
              22.555579
            ],
            [
              69.344478,
              22.565764
            ],
            [
              69.352409,
              22.558643
            ],
            [
              69.362761,
              22.567316
            ],
            [
              69.374106,
              22.562357
            ],
            [
              69.380994,
              22.573232
            ],
            [
              69.396051,
              22.568306
            ],
            [
              69.398897,
              22.579355
            ],
            [
              69.41483,
              22.578042
            ],
            [
              69.413893,
              22.587898
            ],
            [
              69.431805,
              22.588187
            ],
            [
              69.429884,
              22.596112
            ],
            [
              69.448145,
              22.598722
            ],
            [
              69.439681,
              22.606139
            ],
            [
              69.461586,
              22.610298
            ],
            [
              69.448858,
              22.616116
            ],
            [
              69.466547,
              22.622155
            ],
            [
              69.451739,
              22.625907
            ],
            [
              69.469138,
              22.633438
            ],
            [
              69.45607,
              22.635973
            ],
            [
              69.47055,
              22.644622
            ]
          ]
        ]
      }
    },
    {
      "type": "Feature",
      "id": "ORIGIN-DISCHARGE-CENTROID",
      "properties": {
        "feature_classification": "Estimated Illegal Discharge Release Waypoint",
        "waypoint_name": "KUTCH-WAYPOINT-ORIGIN-T22",
        "timestamp_utc": "2024-11-13T06:22:18Z",
        "latitude": 22.615,
        "longitude": 69.36,
        "depth_sounding_m": 34.5,
        "fairway_corridor": "Kandla / Vadinar Deepwater VLCC Channel",
        "vessel_intersect_flag": true,
        "intercepted_vessel_mmsi": 419001234,
        "intercepted_vessel_name": "AL KHALEEJ STAR"
      },
      "geometry": {
        "type": "Point",
        "coordinates": [
          69.36,
          22.615
        ]
      }
    },
    {
      "type": "Feature",
      "id": "REVERSE-LAGRANGIAN-DRIFT-PATH",
      "properties": {
        "feature_classification": "Advection-Diffusion Mean Backtrack Trajectory",
        "duration_hours": 22.0,
        "trajectory_segments": 24
      },
      "geometry": {
        "type": "LineString",
        "coordinates": [
          [
            69.5,
            22.61
          ],
          [
            69.494167,
            22.61073
          ],
          [
            69.488333,
            22.611452
          ],
          [
            69.4825,
            22.612156
          ],
          [
            69.476667,
            22.612833
          ],
          [
            69.470833,
            22.613477
          ],
          [
            69.465,
            22.614078
          ],
          [
            69.459167,
            22.614632
          ],
          [
            69.453333,
            22.615131
          ],
          [
            69.4475,
            22.615571
          ],
          [
            69.441667,
            22.615947
          ],
          [
            69.435833,
            22.616257
          ],
          [
            69.43,
            22.6165
          ],
          [
            69.424167,
            22.616674
          ],
          [
            69.418333,
            22.61678
          ],
          [
            69.4125,
            22.616821
          ],
          [
            69.406667,
            22.616797
          ],
          [
            69.400833,
            22.616715
          ],
          [
            69.395,
            22.616578
          ],
          [
            69.389167,
            22.616393
          ],
          [
            69.383333,
            22.616167
          ],
          [
            69.3775,
            22.615906
          ],
          [
            69.371667,
            22.615619
          ],
          [
            69.365833,
            22.615314
          ],
          [
            69.36,
            22.615
          ]
        ]
      }
    }
  ]
}