{
  "type": "FeatureCollection",
  "features": [
    {
      "type": "Feature",
      "properties": {
        "name": "Indian Exclusive Economic Zone (EEZ) \u2014 Arabian Sea & Bay of Bengal",
        "zone": "Mainland & Lakshadweep",
        "area_km2": 1630000,
        "authority": "Indian Coast Guard / UNCLOS 200 NM"
      },
      "geometry": {
        "type": "Polygon",
        "coordinates": [
          [
            [
              68.05,
              23.633
            ],
            [
              67.5,
              23.4
            ],
            [
              66.8,
              22.8
            ],
            [
              65.5,
              21.5
            ],
            [
              65.2,
              20.0
            ],
            [
              66.0,
              19.0
            ],
            [
              67.0,
              18.0
            ],
            [
              68.5,
              16.5
            ],
            [
              69.8,
              15.0
            ],
            [
              70.4,
              13.5
            ],
            [
              70.8,
              12.0
            ],
            [
              70.2,
              11.0
            ],
            [
              70.0,
              9.5
            ],
            [
              70.3,
              8.0
            ],
            [
              71.0,
              7.0
            ],
            [
              72.5,
              6.5
            ],
            [
              74.0,
              6.0
            ],
            [
              76.0,
              5.5
            ],
            [
              78.0,
              5.5
            ],
            [
              79.2,
              6.5
            ],
            [
              79.5,
              8.0
            ],
            [
              79.5,
              9.0
            ],
            [
              79.7,
              9.5
            ],
            [
              80.0,
              10.0
            ],
            [
              82.2,
              10.5
            ],
            [
              83.5,
              11.5
            ],
            [
              84.8,
              13.0
            ],
            [
              86.0,
              14.5
            ],
            [
              87.2,
              16.0
            ],
            [
              88.5,
              17.5
            ],
            [
              89.2,
              19.0
            ],
            [
              89.5,
              20.5
            ],
            [
              89.2,
              21.4
            ],
            [
              89.0,
              21.65
            ],
            [
              88.9,
              21.75
            ],
            [
              88.2,
              21.6
            ],
            [
              86.9,
              20.7
            ],
            [
              85.0,
              19.3
            ],
            [
              83.3,
              17.7
            ],
            [
              81.5,
              16.0
            ],
            [
              80.2,
              13.5
            ],
            [
              79.8,
              10.5
            ],
            [
              78.2,
              8.8
            ],
            [
              77.5,
              8.1
            ],
            [
              76.2,
              9.5
            ],
            [
              74.9,
              12.5
            ],
            [
              73.8,
              15.4
            ],
            [
              72.8,
              18.9
            ],
            [
              72.2,
              20.9
            ],
            [
              70.0,
              21.0
            ],
            [
              68.8,
              22.8
            ],
            [
              68.5,
              23.5
            ],
            [
              68.05,
              23.633
            ]
          ]
        ]
      }
    },
    {
      "type": "Feature",
      "properties": {
        "name": "Indian Exclusive Economic Zone (EEZ) \u2014 Andaman & Nicobar Sea",
        "zone": "Andaman & Nicobar Islands",
        "area_km2": 660000,
        "authority": "Indian Coast Guard / UNCLOS 200 NM"
      },
      "geometry": {
        "type": "Polygon",
        "coordinates": [
          [
            [
              92.5,
              14.8
            ],
            [
              93.8,
              14.5
            ],
            [
              94.5,
              14.0
            ],
            [
              95.0,
              12.5
            ],
            [
              95.2,
              11.0
            ],
            [
              95.5,
              9.5
            ],
            [
              95.5,
              8.0
            ],
            [
              95.2,
              7.0
            ],
            [
              94.5,
              6.0
            ],
            [
              93.5,
              5.5
            ],
            [
              92.2,
              5.8
            ],
            [
              91.5,
              7.5
            ],
            [
              91.0,
              9.0
            ],
            [
              91.2,
              11.0
            ],
            [
              91.5,
              13.0
            ],
            [
              91.8,
              14.0
            ],
            [
              92.5,
              14.8
            ]
          ]
        ]
      }
    }
  ]
}